NORAD_CAT_ID,OBJECT_NAME,OBJECT_TYPE,EPOCH,MEAN_MOTION,ECCENTRICITY,INCLINATION,RA_OF_ASC_NODE,ARG_OF_PERICENTER,MEAN_ANOMALY,BSTAR,MEAN_MOTION_DOT,MEAN_MOTION_DDOT,TLE_LINE0,TLE_LINE1,TLE_LINE2,SEMIMAJOR_AXIS,PERIOD,APOGEE,PERIGEE,DECAYED
53152.0,STARLINK-4045,PAYLOAD,2022-10-03 22:00:00,15.08881821,0.0001786999999999,53.2115,28.0392,41.6859,173.5706,-0.0046083999999999,-0.00072973,0.0,0 STARLINK-4045,1 53152U 22083W   22276.91667824 -.00072973  00000-0 -46084-2 0  9997,2 53152  53.2115  28.0392 0001787  41.6859 173.5706 15.08881821  1300,6917.753000000002,95.435,540.854,538.381,0.0
53152.0,STARLINK-4045,PAYLOAD,2022-10-04 14:00:01,15.08864963,0.0001819,53.2121,25.0464,44.0656,194.3994,-0.003083,-0.00049054,0.0,0 STARLINK-4045,1 53152U 22083W   22277.58334491 -.00049054  00000-0 -30830-2 0  9998,2 53152  53.2121  25.0464 0001819  44.0656 194.3994 15.08864963  1300,6917.804,95.436,540.927,538.411,0.0
53152.0,STARLINK-4045,PAYLOAD,2022-10-04 22:00:00,15.08838265,0.000174,53.2124,23.5493,39.9972,210.0717,-0.0010206,-0.00016494,0.0,0 STARLINK-4045,1 53152U 22083W   22277.91667824 -.00016494  00000-0 -10206-2 0  9991,2 53152  53.2124  23.5493 0001740  39.9972 210.0717 15.08838265  1300,6917.886,95.438,540.9540000000002,538.547,0.0
53152.0,STARLINK-4045,PAYLOAD,2022-10-05 06:00:00,15.08828948,0.0001613,53.2133,22.0516,46.6304,215.0189,1.9511e-05,2.2e-07,0.0,0 STARLINK-4045,1 53152U 22083W   22278.25001157  .00000022  00000-0  19511-4 0  9998,2 53152  53.2133  22.0516 0001613  46.6304 215.0189 15.08828948 13053,6917.9140000000025,95.438,540.895,538.663,0.0
53152.0,STARLINK-4045,PAYLOAD,2022-10-05 14:00:01,15.08826118,0.0001859,53.2133,20.5569,42.8034,230.4924,-0.00025142,-4.286e-05,0.0,0 STARLINK-4045,1 53152U 22083W   22278.58335648 -.00004286  00000-0 -25142-3 0  9993,2 53152  53.2133  20.5569 0001859  42.8034 230.4924 15.08826118  1304,6917.9230000000025,95.438,541.0740000000002,538.502,0.0
53152.0,STARLINK-4045,PAYLOAD,2022-10-05 22:00:00,15.08847297,0.000181,53.2136,19.0587,40.2711,244.5367,-0.0047126,-0.0007453,0.0,0 STARLINK-4045,1 53152U 22083W   22278.91667824 -.00074530  00000-0 -47126-2 0  9998,2 53152  53.2136  19.0587 0001810  40.2711 244.5367 15.08847297  1309,6917.858,95.437,540.975,538.471,0.0
53152.0,STARLINK-4045,PAYLOAD,2022-10-06 14:00:01,15.08830953,0.0001946,53.2132,16.0676,42.2448,265.7144,0.00027583,4.103e-05,0.0,0 STARLINK-4045,1 53152U 22083W   22279.58334491  .00004103  00000-0  27583-3 0  9996,2 53152  53.2132  16.0676 0001946  42.2448 265.7144 15.08830953  1309,6917.908,95.438,541.119,538.427,0.0
53152.0,STARLINK-4045,PAYLOAD,2022-10-06 22:42:55,15.08843683,0.0001835,53.2132,14.4364,41.2829,80.1789,4.6242000000000006e-06,-2.15e-06,0.0,0 STARLINK-4045,1 53152U 22083W   22279.94646991 -.00000215  00000-0  46242-5 0  9993,2 53152  53.2132  14.4364 0001835  41.2829  80.1789 15.08843683  1302,6917.869000000002,95.437,541.004,538.465,0.0
53152.0,STARLINK-4045,PAYLOAD,2022-10-07 14:00:01,15.08848262,0.0002018,53.2134,11.5782,41.9937,300.7578,0.00033619,5.068e-05,0.0,0 STARLINK-4045,1 53152U 22083W   22280.58334491  .00005068  00000-0  33619-3 0  9996,2 53152  53.2134  11.5782 0002018  41.9937 300.7578 15.08848262  1302,6917.855,95.437,541.116,538.3240000000002,0.0
53152.0,STARLINK-4045,PAYLOAD,2022-10-07 22:00:00,15.08873406,0.0001851999999999,53.2134,10.0808,37.8601,316.4935,-0.0068491,-0.00107766,0.0,0 STARLINK-4045,1 53152U 22083W   22280.91667824 -.00107766  00000-0 -68491-2 0  9997,2 53152  53.2134  10.0808 0001852  37.8601 316.4935 15.08873406  1301,6917.778,95.435,540.924,538.362,0.0
53152.0,STARLINK-4045,PAYLOAD,2022-10-08 06:00:00,15.08798963,0.0001695,53.2138,8.5836,39.7362,326.206,0.0030703,0.0004886,0.0,0 STARLINK-4045,1 53152U 22083W   22281.25001157  .00048860  00000-0  30703-2 0  9998,2 53152  53.2138   8.5836 0001695  39.7362 326.2060 15.08798963 13516,6918.005999999999,95.44,541.043,538.698,0.0
53152.0,STARLINK-4045,PAYLOAD,2022-10-08 14:00:01,15.08827696,0.0001911,53.2139,7.089,34.5213,342.9878,-0.00068008,-0.00011092,0.0,0 STARLINK-4045,1 53152U 22083W   22281.58334491 -.00011092  00000-0 -68008-3 0  9993,2 53152  53.2139   7.0890 0001911  34.5213 342.9878 15.08827696  1302,6917.918000000002,95.438,541.105,538.461,0.0
53152.0,STARLINK-4045,PAYLOAD,2022-10-08 22:00:00,15.08837724,0.0001813,53.2139,5.5915,32.8127,356.2739,-1.8538e-05,-5.83e-06,0.0,0 STARLINK-4045,1 53152U 22083W   22281.91667824 -.00000583  00000-0 -18538-4 0  9996,2 53152  53.2139   5.5915 0001813  32.8127 356.2739 15.08837724 13613,6917.887,95.438,541.007,538.498,0.0
53152.0,STARLINK-4045,PAYLOAD,2022-10-09 14:00:01,15.08842029,0.000202,53.2142,2.5998,35.8333,16.4555,0.0012625,0.00019863,0.0,0 STARLINK-4045,1 53152U 22083W   22282.58334491  .00019863  00000-0  12625-2 0  9999,2 53152  53.2142   2.5998 0002020  35.8333  16.4555 15.08842029  1306,6917.874,95.437,541.137,538.342,0.0
53152.0,STARLINK-4045,PAYLOAD,2022-10-09 22:00:00,15.08864927,0.0001932,53.2142,1.1021,35.6053,28.2902,-0.001394,-0.00022421,0.0,0 STARLINK-4045,1 53152U 22083W   22282.91667824 -.00022421  00000-0 -13940-2 0  9992,2 53152  53.2142   1.1021 0001932  35.6053  28.2902 15.08864927 13767,6917.804,95.436,541.006,538.3330000000002,0.0
53152.0,STARLINK-4045,PAYLOAD,2022-10-10 14:00:01,15.08949563,0.0002014,53.2158,358.1075,34.8907,52.2258,-0.020534,-0.00314064,0.0,0 STARLINK-4045,1 53152U 22083W   22283.58334491 -.00314064  00000-0 -20534-1 0  9990,2 53152  53.2158 358.1075 0002014  34.8907  52.2258 15.08949563  1307,6917.545999999999,95.431,540.804,538.0169999999998,0.0
53152.0,STARLINK-4045,PAYLOAD,2022-10-10 22:00:01,15.08675137,0.0001685,53.2169,356.6073,35.4391,63.3407,0.015631,0.00256512,0.0,0 STARLINK-4045,1 53152U 22083W   22283.91668981  .00256512  00000-0  15631-1 0  9994,2 53152  53.2169 356.6073 0001685  35.4391  63.3407 15.08675137 13919,6918.384,95.448,541.415,539.0840000000002,0.0
53152.0,STARLINK-4045,PAYLOAD,2022-10-11 06:00:00,15.08816454,0.0001953,53.2145,355.1147,42.5129,67.7777,-0.0012253,-0.00019724,0.0,0 STARLINK-4045,1 53152U 22083W   22284.25001157 -.00019724  00000-0 -12253-2 0  9990,2 53152  53.2145 355.1147 0001953  42.5129  67.7777 15.08816454 13967,6917.9519999999975,95.439,541.168,538.466,0.0
53152.0,STARLINK-4045,PAYLOAD,2022-10-11 14:00:01,15.08737414,0.0002038,53.2171,353.6158,32.7293,89.137,0.0097817,0.00158466,0.0,0 STARLINK-4045,1 53152U 22083W   22284.58334491  .00158466  00000-0  97817-2 0  9990,2 53152  53.2171 353.6158 0002038  32.7293  89.1370 15.08737414  1309,6918.194,95.444,541.469,538.649,0.0
53152.0,STARLINK-4045,PAYLOAD,2022-10-11 22:00:00,15.08818354,0.0001986999999999,53.2136,352.1234,42.1789,91.2125,0.00049606,7.611e-05,0.0,0 STARLINK-4045,1 53152U 22083W   22284.91667824  .00007611  00000-0  49606-3 0  9995,2 53152  53.2136 352.1234 0001987  42.1789  91.2125 15.08818354 14068,6917.946999999999,95.439,541.186,538.437,0.0
53152.0,STARLINK-4045,PAYLOAD,2022-10-12 14:00:01,15.08849718,0.0002121,53.2154,349.1294,40.929,115.6457,-0.0004431999999999,-7.337e-05,0.0,0 STARLINK-4045,1 53152U 22083W   22285.58334491 -.00007337  00000-0 -44320-3 0  9995,2 53152  53.2154 349.1294 0002121  40.9290 115.6457 15.08849718  1304,6917.851,95.437,541.183,538.248,0.0
53152.0,STARLINK-4045,PAYLOAD,2022-10-12 22:00:00,15.08844656,0.0001855999999999,53.2167,347.6291,43.7971,124.3848,-0.00078636,-0.00012783,0.0,0 STARLINK-4045,1 53152U 22083W   22285.91667824 -.00012783  00000-0 -78636-3 0  9999,2 53152  53.2167 347.6291 0001856  43.7971 124.3848 15.08844656  1306,6917.866,95.437,541.015,538.447,0.0
53152.0,STARLINK-4045,PAYLOAD,2022-10-13 06:00:00,15.0880122,0.0001841,53.2148,346.1345,43.1471,136.5964,0.0052994,0.0008498,0.0,0 STARLINK-4045,1 53152U 22083W   22286.25001157  .00084980  00000-0  52994-2 0  9992,2 53152  53.2148 346.1345 0001841  43.1471 136.5964 15.08801220 14265,6917.999,95.44,541.138,538.59,0.0
53152.0,STARLINK-4045,PAYLOAD,2022-10-13 14:00:01,15.08924353,0.0002005,53.2163,344.6382,41.268,150.046,-0.0074471,-0.00117161,0.0,0 STARLINK-4045,1 53152U 22083W   22286.58334491 -.00117161  00000-0 -74471-2 0  9992,2 53152  53.2163 344.6382 0002005  41.2680 150.0460 15.08924353  1306,6917.623000000001,95.432,540.875,538.101,0.0
53152.0,STARLINK-4045,PAYLOAD,2022-10-13 20:00:01,15.08836438,0.0001956999999999,53.2173,343.5130000000001,41.0991,69.0293,1.1824e-05,-1e-06,0.0,0 STARLINK-4045,1 53152U 22083W   22286.83335648 -.00000100  00000-0  11824-4 0  9993,2 53152  53.2173 343.5130 0001957  41.0991  69.0293 15.08836438 14352,6917.891,95.438,541.11,538.4019999999998,0.0
53152.0,STARLINK-4045,PAYLOAD,2022-10-13 22:00:00,15.08836788,0.0001914,53.2175,343.1384,42.2503,160.7131,1.0181e-05,-1.26e-06,0.0,0 STARLINK-4045,1 53152U 22083W   22286.91667824 -.00000126  00000-0  10181-4 0  9999,2 53152  53.2175 343.1384 0001914  42.2503 160.7131 15.08836788  1305,6917.89,95.438,541.0790000000002,538.431,0.0
53152.0,STARLINK-4045,PAYLOAD,2022-10-14 14:00:01,15.0882119,0.0002165999999999,53.2165,340.1485,34.1423,192.0115,0.0015847,0.0002501,0.0,0 STARLINK-4045,1 53152U 22083W   22287.58334491  .00025010  00000-0  15847-2 0  9994,2 53152  53.2165 340.1485 0002166  34.1423 192.0115 15.08821190  1305,6917.938,95.439,541.3009999999998,538.304,0.0
53152.0,STARLINK-4045,PAYLOAD,2022-10-14 22:00:00,15.0883617,0.0001867,53.2167,338.6504,42.355,195.385,4.1281000000000014e-05,3.69e-06,0.0,0 STARLINK-4045,1 53152U 22083W   22287.91667824  .00000369  00000-0  41281-4 0  9993,2 53152  53.2167 338.6504 0001867  42.3550 195.3850 15.08836170 14513,6917.892,95.438,541.049,538.466,0.0
53152.0,STARLINK-4045,PAYLOAD,2022-10-15 14:00:01,15.08813399,0.0002114,53.2126,335.6626,33.337,227.6468,0.0015344,0.00024199,0.0,0 STARLINK-4045,1 53152U 22083W   22288.58334491  .00024199  00000-0  15344-2 0  9994,2 53152  53.2126 335.6626 0002114  33.3370 227.6468 15.08813399 14619,6917.962,95.439,541.289,538.364,0.0
